[{"OBJECT_NAME":"PVCC","OBJECT_ID":"2023-155K","EPOCH":"2026-03-09T22:53:45.550752","MEAN_MOTION":15.14680593,"ECCENTRICITY":0.00057691,"INCLINATION":97.5765,"RA_OF_ASC_NODE":145.8322,"ARG_OF_PERICENTER":112.5424,"MEAN_ANOMALY":247.6419,"EPHEMERIS_TYPE":0,"CLASSIFICATION_TYPE":"U","NORAD_CAT_ID":58025,"ELEMENT_SET_NO":999,"REV_AT_EPOCH":13295,"BSTAR":0.00050695822,"MEAN_MOTION_DOT":9.322e-5,"MEAN_MOTION_DDOT":0},{"OBJECT_NAME":"OBJECT E","OBJECT_ID":"2025-180E","EPOCH":"2026-03-09T22:54:04.174272","MEAN_MOTION":15.16352098,"ECCENTRICITY":0.000156,"INCLINATION":97.4787,"RA_OF_ASC_NODE":197.4233,"ARG_OF_PERICENTER":89.7042,"MEAN_ANOMALY":270.437,"EPHEMERIS_TYPE":0,"CLASSIFICATION_TYPE":"U","NORAD_CAT_ID":65263,"ELEMENT_SET_NO":999,"REV_AT_EPOCH":3068,"BSTAR":0.00035109003,"MEAN_MOTION_DOT":6.746e-5,"MEAN_MOTION_DDOT":0}]
